OBJECT_NAME,OBJECT_ID,EPOCH,MEAN_MOTION,ECCENTRICITY,INCLINATION,RA_OF_ASC_NODE,ARG_OF_PERICENTER,MEAN_ANOMALY,EPHEMERIS_TYPE,CLASSIFICATION_TYPE,NORAD_CAT_ID,ELEMENT_SET_NO,REV_AT_EPOCH,BSTAR,MEAN_MOTION_DOT,MEAN_MOTION_DDOT
STARLINK-11326 [DTC],2024-213C,2026-07-17T06:02:38.377248,15.69734696,.0000925,53.1579,122.6195,112.9677,247.1439,0,U,62010,999,9526,.81459E-3,.99389E-3,0
STARLINK-11330 [DTC],2024-213D,2026-07-17T18:37:18.382944,15.69741811,.00015224,53.1560,120.2098,106.2410,253.8776,0,U,62011,999,9534,.93604655E-3,.114542E-2,0
STARLINK-11363 [DTC],2024-213E,2026-07-17T22:37:02.536608,15.69714784,.00009456,53.1574,119.1078,78.8889,281.2235,0,U,62012,999,9537,.86883933E-3,.106045E-2,0
STARLINK-11377 [DTC],2024-213F,2026-07-17T22:29:58.594272,15.69712242,.00008753,53.1573,119.0782,99.0431,261.0686,0,U,62013,999,9537,.10066261E-2,.1232E-2,0
STARLINK-11385 [DTC],2024-213G,2026-07-17T21:33:36.546624,15.69742373,.00007505,53.1581,119.5500,103.8160,256.2942,0,U,62014,999,9536,.13645527E-2,.168347E-2,0
STARLINK-11396 [DTC],2024-213H,2026-07-17T22:15:50.834880,15.69711529,.00008068,53.1579,119.0067,70.2066,289.9039,0,U,62015,999,9537,.10040068E-2,.122869E-2,0
STARLINK-11393 [DTC],2024-213J,2026-07-17T22:08:47.082624,15.69730841,.0000747,53.1580,118.9752,76.3616,283.7486,0,U,62016,999,9537,.12921743E-2,.159131E-2,0
STARLINK-11343 [DTC],2024-213K,2026-07-17T18:23:10.811904,15.69792331,.00014087,53.1574,120.1485,91.1097,269.0082,0,U,62017,999,9534,.12551711E-2,.154873E-2,0
STARLINK-11411 [DTC],2024-213L,2026-07-17T18:09:03.334176,15.69773036,.00033384,53.1573,120.0845,84.7647,275.3752,0,U,62018,999,9534,.75883615E-3,.92635E-3,0
STARLINK-11404 [DTC],2024-213M,2026-07-17T21:54:49.260096,15.69732694,.00010737,53.1577,119.6466,69.5170,290.5963,0,U,62019,999,9536,.75189094E-3,.91599E-3,0
STARLINK-11378 [DTC],2024-213N,2026-07-17T05:13:11.625888,15.69726419,.0000938,53.1573,122.3950,112.8536,247.2581,0,U,62020,999,9526,.80724E-3,.98441E-3,0
STARLINK-32520,2024-213P,2026-07-17T22:24:24.300576,15.34397603,.00031327,53.1579,283.3042,74.8971,285.2378,0,U,62021,999,9309,.2467056E-3,.7967E-4,0
STARLINK-32539,2024-213Q,2026-07-17T04:14:58.805664,15.30206004,.00011535,53.1582,274.1539,99.8181,260.2950,0,U,62022,999,9315,.19903172E-3,.5541E-4,0
STARLINK-32334,2024-213R,2026-07-17T22:59:43.972512,15.30218365,.00008466,53.1581,282.7442,77.5349,282.5746,0,U,62023,999,9310,.4516501E-3,.13049E-3,0
STARLINK-32504,2024-213S,2026-07-17T06:09:27.846720,15.30204096,.0001122,53.1567,286.1941,72.4584,287.6539,0,U,62024,999,9299,.2301E-3,.6463E-4,0
STARLINK-32493,2024-213T,2026-07-17T22:53:53.148768,15.34406934,.000091,53.1581,281.3100,91.0515,269.0592,0,U,62025,999,9312,.31405012E-3,.10251E-3,0
STARLINK-32561,2024-213U,2026-07-17T06:18:34.717248,15.30207276,.000077,53.1588,286.2307,14.9711,345.1312,0,U,62026,999,9299,.26268E-3,.743E-4,0
STARLINK-32512,2024-213V,2026-07-17T12:12:00.040320,15.30203989,.0000998,53.1587,284.9162,85.3434,274.7681,0,U,62027,999,9303,.199E-3,.554E-4,0
GSAT-N2 (GSAT-20),2024-214A,2026-07-17T22:09:03.230784,1.00271762,.00026681,0.0665,261.2227,147.1154,287.5847,0,U,62028,999,620,0,-.28E-6,0
STARLINK-32637,2024-216A,2026-07-17T12:06:13.451040,15.27581656,.0001659,43.0034,242.8103,275.7088,84.3574,0,U,62032,999,9373,.35891E-3,.9628E-4,0
STARLINK-32582,2024-216B,2026-07-17T12:58:29.442720,15.27581984,.000202,43.0003,250.0088,273.6037,86.4584,0,U,62033,999,9365,.16872E-3,.4384E-4,0
STARLINK-32615,2024-216C,2026-07-17T19:18:21.793824,15.27579182,.00017422,42.9995,241.6232,276.1514,83.9139,0,U,62034,999,9261,.13938977E-3,.3575E-4,0
STARLINK-32592,2024-216D,2026-07-17T12:01:20.405568,15.27583821,.0002033,42.9990,250.5638,269.7111,90.3508,0,U,62035,999,9365,.34578E-3,.9266E-4,0
STARLINK-32225,2024-216E,2026-07-17T09:58:58.213056,15.27588955,.0000301,42.9961,243.8660,147.5231,212.5639,0,U,62036,999,9378,.31606E-3,.8448E-4,0
STARLINK-32595,2024-216F,2026-07-17T11:44:41.174016,15.27583622,.0001559,42.9987,250.4801,267.5573,92.5100,0,U,62037,999,9365,.19706E-3,.5165E-4,0
STARLINK-32477,2024-216G,2026-07-17T17:13:29.847648,15.96624670,.00236226,42.9786,195.2723,116.1165,244.2146,0,U,62038,999,9315,.74584227E-3,.336572E-2,.53411985E-4
STARLINK-32480,2024-216H,2026-07-17T03:46:02.904384,15.27587540,.00009466,42.9972,245.3604,249.4935,110.5815,0,U,62039,999,9251,.31722162E-3,.8479E-4,0
STARLINK-32510,2024-216J,2026-07-17T04:30:54.827712,15.27580135,.00026938,43.0034,252.5199,285.3585,74.6969,0,U,62040,999,9359,.19929868E-3,.5226E-4,0
STARLINK-32456,2024-216K,2026-07-17T11:42:22.864032,15.27584007,.0001623,42.9987,243.5439,281.9647,78.1022,0,U,62041,999,9372,.17681E-3,.4607E-4,0
STARLINK-32509,2024-216L,2026-07-17T11:18:19.558080,15.27583894,.0001086,42.9981,243.4195,262.6355,97.4373,0,U,62042,999,9372,.21239E-3,.5588E-4,0
