STARLINK-11326 [DTC]    
1 62010U 24213C   26198.25183307  .00099389  00000+0  81459-3 0  9993
2 62010  53.1579 122.6195 0000925 112.9677 247.1439 15.69734696 95264
STARLINK-11330 [DTC]    
1 62011U 24213D   26198.77590721  .00114542  00000+0  93605-3 0  9998
2 62011  53.1560 120.2098 0001522 106.2410 253.8776 15.69741811 95340
STARLINK-11363 [DTC]    
1 62012U 24213E   26198.94239047  .00106045  00000+0  86884-3 0  9999
2 62012  53.1574 119.1078 0000945  78.8889 281.2235 15.69714784 95370
STARLINK-11377 [DTC]    
1 62013U 24213F   26198.93748373  .00123200  00000+0  10066-2 0  9996
2 62013  53.1573 119.0782 0000875  99.0431 261.0686 15.69712242 95374
STARLINK-11385 [DTC]    
1 62014U 24213G   26198.89833966  .00168347  00000+0  13646-2 0  9993
2 62014  53.1581 119.5500 0000750 103.8160 256.2942 15.69742373 95360
STARLINK-11396 [DTC]    
1 62015U 24213H   26198.92767170  .00122869  00000+0  10040-2 0  9995
2 62015  53.1579 119.0067 0000806  70.2066 289.9039 15.69711529 95375
STARLINK-11393 [DTC]    
1 62016U 24213J   26198.92276716  .00159131  00000+0  12922-2 0  9990
2 62016  53.1580 118.9752 0000747  76.3616 283.7486 15.69730841 95375
STARLINK-11343 [DTC]    
1 62017U 24213K   26198.76609736  .00154873  00000+0  12552-2 0  9992
2 62017  53.1574 120.1485 0001408  91.1097 269.0082 15.69792331 95348
STARLINK-11411 [DTC]    
1 62018U 24213L   26198.75628859  .00092635  00000+0  75884-3 0  9994
2 62018  53.1573 120.0845 0003338  84.7647 275.3752 15.69773036 95345
STARLINK-11404 [DTC]    
1 62019U 24213M   26198.91307014  .00091599  00000+0  75189-3 0  9996
2 62019  53.1577 119.6466 0001073  69.5170 290.5963 15.69732694 95369
STARLINK-11378 [DTC]    
1 62020U 24213N   26198.21749567  .00098441  00000+0  80724-3 0  9998
2 62020  53.1573 122.3950 0000938 112.8536 247.2581 15.69726419 95265
STARLINK-32520          
1 62021U 24213P   26198.93361459  .00007967  00000+0  24671-3 0  9990
2 62021  53.1579 283.3042 0003132  74.8971 285.2378 15.34397603 93097
STARLINK-32539          
1 62022U 24213Q   26198.17706951  .00005541  00000+0  19903-3 0  9995
2 62022  53.1582 274.1539 0001153  99.8181 260.2950 15.30206004 93158
STARLINK-32334          
1 62023U 24213R   26198.95814783  .00013049  00000+0  45165-3 0  9996
2 62023  53.1581 282.7442 0000846  77.5349 282.5746 15.30218365 93101
STARLINK-32504          
1 62024U 24213S   26198.25657230  .00006463  00000+0  23010-3 0  9999
2 62024  53.1567 286.1941 0001122  72.4584 287.6539 15.30204096 92999
STARLINK-32493          
1 62025U 24213T   26198.95408737  .00010251  00000+0  31405-3 0  9990
2 62025  53.1581 281.3100 0000910  91.0515 269.0592 15.34406934 93123
STARLINK-32561          
1 62026U 24213U   26198.26290182  .00007430  00000+0  26268-3 0  9994
2 62026  53.1588 286.2307 0000770  14.9711 345.1312 15.30207276 92994
STARLINK-32512          
1 62027U 24213V   26198.50833380  .00005540  00000+0  19900-3 0  9990
2 62027  53.1587 284.9162 0000998  85.3434 274.7681 15.30203989 93033
GSAT-N2 (GSAT-20)       
1 62028U 24214A   26198.92295406 -.00000028  00000+0  00000+0 0  9993
2 62028   0.0665 261.2227 0002668 147.1154 287.5847  1.00271762  6209
STARLINK-32637          
1 62032U 24216A   26198.50432235  .00009628  00000+0  35891-3 0  9991
2 62032  43.0034 242.8103 0001659 275.7088  84.3574 15.27581656 93736
STARLINK-32582          
1 62033U 24216B   26198.54061855  .00004384  00000+0  16872-3 0  9994
2 62033  43.0003 250.0088 0002020 273.6037  86.4584 15.27581984 93659
STARLINK-32615          
1 62034U 24216C   26198.80441891  .00003575  00000+0  13939-3 0  9998
2 62034  42.9995 241.6232 0001742 276.1514  83.9139 15.27579182 92613
STARLINK-32592          
1 62035U 24216D   26198.50093062  .00009266  00000+0  34578-3 0  9994
2 62035  42.9990 250.5638 0002033 269.7111  90.3508 15.27583821 93655
STARLINK-32225          
1 62036U 24216E   26198.41595154  .00008448  00000+0  31606-3 0  9994
2 62036  42.9961 243.8660 0000301 147.5231 212.5639 15.27588955 93786
STARLINK-32595          
1 62037U 24216F   26198.48936544  .00005165  00000+0  19706-3 0  9994
2 62037  42.9987 250.4801 0001559 267.5573  92.5100 15.27583622 93655
STARLINK-32477          
1 62038U 24216G   26198.71770657  .00336572  53412-4  74584-3 0  9996
2 62038  42.9786 195.2723 0023622 116.1165 244.2146 15.96624670 93159
STARLINK-32480          
1 62039U 24216H   26198.15697806  .00008479  00000+0  31722-3 0  9998
2 62039  42.9972 245.3604 0000946 249.4935 110.5815 15.27587540 92516
STARLINK-32510          
1 62040U 24216J   26198.18813458  .00005226  00000+0  19930-3 0  9990
2 62040  43.0034 252.5199 0002693 285.3585  74.6969 15.27580135 93591
STARLINK-32456          
1 62041U 24216K   26198.48776463  .00004607  00000+0  17681-3 0  9991
2 62041  42.9987 243.5439 0001623 281.9647  78.1022 15.27584007 93723
STARLINK-32509          
1 62042U 24216L   26198.47105970  .00005588  00000+0  21239-3 0  9993
2 62042  42.9981 243.4195 0001086 262.6355  97.4373 15.27583894 93727
